3:I[5613,[],""]
5:I[1778,[],""]
4:["slug","mercury","d"]
0:["eDk9eJSH20Rcky5GJ2Twi",[[["",{"children":["planets",{"children":[["slug","mercury","d"],{"children":["__PAGE__?{\"slug\":\"mercury\"}",{}]}]}]},"$undefined","$undefined",true],["",{"children":["planets",{"children":[["slug","mercury","d"],{"children":["__PAGE__",{},["$L1","$L2",null]]},["$","$L3",null,{"parallelRouterKey":"children","segmentPath":["children","planets","children","$4","children"],"loading":"$undefined","loadingStyles":"$undefined","loadingScripts":"$undefined","hasLoading":false,"error":"$undefined","errorStyles":"$undefined","errorScripts":"$undefined","template":["$","$L5",null,{}],"templateStyles":"$undefined","templateScripts":"$undefined","notFound":"$undefined","notFoundStyles":"$undefined","styles":[["$","link","0",{"rel":"stylesheet","href":"/_next/static/css/601edac3f6e163e9.css","precedence":"next","crossOrigin":""}]]}]]},["$","$L3",null,{"parallelRouterKey":"children","segmentPath":["children","planets","children"],"loading":"$undefined","loadingStyles":"$undefined","loadingScripts":"$undefined","hasLoading":false,"error":"$undefined","errorStyles":"$undefined","errorScripts":"$undefined","template":["$","$L5",null,{}],"templateStyles":"$undefined","templateScripts":"$undefined","notFound":"$undefined","notFoundStyles":"$undefined","styles":null}]]},[null,["$","html",null,{"lang":"en","children":["$","body",null,{"children":["$","$L3",null,{"parallelRouterKey":"children","segmentPath":["children"],"loading":"$undefined","loadingStyles":"$undefined","loadingScripts":"$undefined","hasLoading":false,"error":"$undefined","errorStyles":"$undefined","errorScripts":"$undefined","template":["$","$L5",null,{}],"templateStyles":"$undefined","templateScripts":"$undefined","notFound":[["$","title",null,{"children":"404: This page could not be found."}],["$","div",null,{"style":{"fontFamily":"system-ui,\"Segoe UI\",Roboto,Helvetica,Arial,sans-serif,\"Apple Color Emoji\",\"Segoe UI Emoji\"","height":"100vh","textAlign":"center","display":"flex","flexDirection":"column","alignItems":"center","justifyContent":"center"},"children":["$","div",null,{"children":[["$","style",null,{"dangerouslySetInnerHTML":{"__html":"body{color:#000;background:#fff;margin:0}.next-error-h1{border-right:1px solid rgba(0,0,0,.3)}@media (prefers-color-scheme:dark){body{color:#fff;background:#000}.next-error-h1{border-right:1px solid rgba(255,255,255,.3)}}"}}],["$","h1",null,{"className":"next-error-h1","style":{"display":"inline-block","margin":"0 20px 0 0","padding":"0 23px 0 0","fontSize":24,"fontWeight":500,"verticalAlign":"top","lineHeight":"49px"},"children":"404"}],["$","div",null,{"style":{"display":"inline-block"},"children":["$","h2",null,{"style":{"fontSize":14,"fontWeight":400,"lineHeight":"49px","margin":0},"children":"This page could not be found."}]}]]}]}]],"notFoundStyles":[],"styles":null}]}]}],null]],[[["$","link","0",{"rel":"stylesheet","href":"/_next/static/css/d007c90d5c0c1cf4.css","precedence":"next","crossOrigin":""}]],"$L6"]]]]
6:[["$","meta","0",{"name":"viewport","content":"width=device-width, initial-scale=1"}],["$","meta","1",{"charSet":"utf-8"}],["$","title","2",{"children":"About Mercury"}]]
1:null
7:I[851,["258","static/chunks/app/planets/%5Bslug%5D/page-6dc77279ec58089c.js"],""]
8:T1c27,*******************************************************************************
 Revised: April 12, 2021             Mercury                            199 / 1

 PHYSICAL DATA (updated 2021-Apr-12):
  Vol. Mean Radius (km) =  2440+-1        Density (g cm^-3)     = 5.427
  Mass x10^23 (kg)      =     3.302       Volume (x10^10 km^3)  = 6.085  
  Sidereal rot. period  =    58.6463 d    Sid. rot. rate (rad/s)= 0.00000124001
  Mean solar day        =   175.9421 d    Core radius (km)      = ~1600 
  Geometric Albedo      =     0.106       Surface emissivity    = 0.77+-0.06
  GM (km^3/s^2)         = 22031.86855     Equatorial radius, Re = 2440 km
  GM 1-sigma (km^3/s^2) =                 Mass ratio (Sun/plnt) = 6023682
  Mom. of Inertia       =     0.33        Equ. gravity  m/s^2   = 3.701     
  Atmos. pressure (bar) = < 5x10^-15      Max. angular diam.    = 11.0"   
  Mean Temperature (K)  = 440             Visual mag. V(1,0)    = -0.42 
  Obliquity to orbit[1] =  2.11' +/- 0.1' Hill's sphere rad. Rp = 94.4 
  Sidereal orb. per.    =  0.2408467 y    Mean Orbit vel.  km/s = 47.362 
  Sidereal orb. per.    = 87.969257  d    Escape vel. km/s      =  4.435
                                 Perihelion  Aphelion    Mean
  Solar Constant (W/m^2)         14462       6278        9126
  Maximum Planetary IR (W/m^2)   12700       5500        8000
  Minimum Planetary IR (W/m^2)   6           6           6
*******************************************************************************


*******************************************************************************
Ephemeris / API_USER Mon Feb 19 07:38:20 2024 Pasadena, USA      / Horizons    
*******************************************************************************
Target body name: Mercury (199)                   {source: DE441}
Center body name: Earth (399)                     {source: DE441}
Center-site name: GEOCENTRIC
*******************************************************************************
Start time      : A.D. 2024-Feb-19 00:00:00.0000 UT+01:00
Stop  time      : A.D. 2024-Feb-19 00:01:00.0000 UT+01:00
Step-size       : 1440 minutes
*******************************************************************************
Target pole/equ : IAU_MERCURY                     {West-longitude positive}
Target radii    : 2439.7, 2439.7, 2439.7 km       {Equator_a, b, pole_c}       
Center geodetic : 0.0, 0.0, -6378.137             {E-lon(deg),Lat(deg),Alt(km)}
Center cylindric: 0.0, 0.0, 0.0                   {E-lon(deg),Dxy(km),Dz(km)}
Center pole/equ : ITRF93                          {East-longitude positive}
Center radii    : 6378.137, 6378.137, 6356.752 km {Equator_a, b, pole_c}       
Target primary  : Sun
Vis. interferer : MOON (R_eq= 1737.400) km        {source: DE441}
Rel. light bend : Sun                             {source: DE441}
Rel. lght bnd GM: 1.3271E+11 km^3/s^2                                          
Atmos refraction: NO (AIRLESS)
RA format       : HMS
Time format     : CAL 
Calendar mode   : Mixed Julian/Gregorian
Time zone       : UT+01:00
EOP file        : eop.240215.p240510                                           
EOP coverage    : DATA-BASED 1962-JAN-20 TO 2024-FEB-15. PREDICTS-> 2024-MAY-09
Units conversion: 1 au= 149597870.700 km, c= 299792.458 km/s, 1 day= 86400.0 s 
Table cut-offs 1: Elevation (-90.0deg=NO ),Airmass (>38.000=NO), Daylight (NO )
Table cut-offs 2: Solar elongation (  0.0,180.0=NO ),Local Hour Angle( 0.0=NO )
Table cut-offs 3: RA/DEC angular rate (     0.0=NO )                           
*******************************************************************************
 Date_(ZONE)_HR:MN     X_(sat-primary)_Y SatPANG  Cnst
******************************************************
$$SOE
 2024-Feb-19 00:00     -22780.5 -16218.1 233.576   Cap
$$EOE
*******************************************************************************
Column meaning:
 
TIME

  Times PRIOR to 1962 are UT1, a mean-solar time closely related to the
prior but now-deprecated GMT. Times AFTER 1962 are in UTC, the current
civil or "wall-clock" time-scale. UTC is kept within 0.9 seconds of UT1
using integer leap-seconds for 1972 and later years.

  Conversion from the internal Barycentric Dynamical Time (TDB) of solar
system dynamics to the non-uniform civil UT time-scale requested for output
has not been determined for UTC times after the next July or January 1st.
Therefore, the last known leap-second is used as a constant over future
intervals.

  Time tags refer to the UT time-scale conversion from TDB on Earth
regardless of observer location within the solar system, although clock
rates may differ due to the local gravity field and no analog to "UT"
may be defined for that location.

  Any 'b' symbol in the 1st-column denotes a B.C. date. First-column blank
(" ") denotes an A.D. date.
 
CALENDAR SYSTEM

  Mixed calendar mode was active such that calendar dates after AD 1582-Oct-15
(if any) are in the modern Gregorian system. Dates prior to 1582-Oct-5 (if any)
are in the Julian calendar system, which is automatically extended for dates
prior to its adoption on 45-Jan-1 BC.  The Julian calendar is useful for
matching historical dates. The Gregorian calendar more accurately corresponds
to the Earth's orbital motion and seasons. A "Gregorian-only" calendar mode is
available if such physical events are the primary interest.

  NOTE: A time-zone correction has been requested. See header.

  NOTE: "n.a." in output means quantity "not available" at the print-time.
 
 'X_(sat-primary)_Y SatPANG' =
   Satellite apparent differential coordinates in the plane-of-sky with
respect to the primary body along with the satellite position angle.
Differential coordinates are defined in RA as:

     X= ((RA_sat - RA_primary) * cosine(DEC_primary))

... and in DEC as:

     Y= (DEC_sat - DEC_primary)

Non-lunar satellites only. "SatPANG" is the counter-clockwise (CCW) position
angle from the reference-frame of-date north-pole to a line from the primary
center to the satellite center. Units: ARCSECONDS (X & Y), DEGREES (pos, angle)
 
 'Cnst' =
   Constellation ID; the 3-letter abbreviation for the name of the
constellation containing the target centers' astrometric position,
as defined by IAU (1930) boundary delineation.  See documentation
for list of abbreviations.

Computations by ...

    Solar System Dynamics Group, Horizons On-Line Ephemeris System
    4800 Oak Grove Drive, Jet Propulsion Laboratory
    Pasadena, CA  91109   USA

    General site: https://ssd.jpl.nasa.gov/
    Mailing list: https://ssd.jpl.nasa.gov/email_list.html
    System news : https://ssd.jpl.nasa.gov/horizons/news.html
    User Guide  : https://ssd.jpl.nasa.gov/horizons/manual.html
    Connect     : browser        https://ssd.jpl.nasa.gov/horizons/app.html#/x
                  API            https://ssd-api.jpl.nasa.gov/doc/horizons.html
                  command-line   telnet ssd.jpl.nasa.gov 6775
                  e-mail/batch   https://ssd.jpl.nasa.gov/ftp/ssd/hrzn_batch.txt
                  scripts        https://ssd.jpl.nasa.gov/ftp/ssd/SCRIPTS
    Author      : Jon.D.Giorgini@jpl.nasa.gov

*******************************************************************************
2:["$","section",null,{"children":[["$","h1",null,{"children":"Mercury"}],["$","$L7",null,{"data":"$8"}]]}]
